ASTROCAST-0403          
1 55111U 23001DG  26068.82333059  .00013959  00000+0  51317-3 0  9990
2 55111  97.5604 161.3228 0004771 338.0704  22.0330 15.28004949129377
STARLINK-35952          
1 66520U 25265E   26068.57496917  .00030098  00000+0  10985-2 0  9993
2 66520  43.0004 278.7826 0000641 301.9847  58.0942 15.27588666 17094
